{
  "type": "FeatureCollection",
  "features": [
    {
      "type": "Feature",
      "properties": {
        "norad_id": 41773,
        "name": "SKYSAT-C2",
        "group": "resource",
        "lat": 79.94939634791902,
        "lon": -110.39014632884138,
        "alt_km": 446.39999591704327,
        "timestamp": "2025-12-27T12:55:14.144396+00:00",
        "meta_object_name": "SKYSAT-C2",
        "meta_object_id": "2016-058D",
        "meta_epoch": "2025-12-27T07:48:50.206176",
        "meta_mean_motion": 15.37603061,
        "meta_eccentricity": 0.00025195,
        "meta_inclination": 97.0354,
        "meta_ra_of_asc_node": 25.2352,
        "meta_arg_of_pericenter": 348.3195,
        "meta_mean_anomaly": 11.7991,
        "meta_ephemeris_type": 0,
        "meta_classification_type": "U",
        "meta_norad_cat_id": 41773,
        "meta_element_set_no": 999,
        "meta_rev_at_epoch": 51860,
        "meta_bstar": 0.00034154478,
        "meta_mean_motion_dot": 0.00012534,
        "meta_mean_motion_ddot": 0,
        "tle_line1": "1 41773U 16058D   25361.32558109  .00012534  00000+0  34154-3 0  9996",
        "tle_line2": "2 41773  97.0354  25.2352 0002519 348.3195  11.7991 15.37603061518601"
      },
      "geometry": {
        "type": "Point",
        "coordinates": [
          -110.39014632884138,
          79.94939634791902
        ]
      }
    },
    {
      "type": "Feature",
      "properties": {
        "norad_id": 41774,
        "name": "SKYSAT-C3",
        "group": "resource",
        "lat": -49.79801853410626,
        "lon": 42.87048313174488,
        "alt_km": 439.82889032235016,
        "timestamp": "2025-12-27T12:55:14.144406+00:00",
        "meta_object_name": "SKYSAT-C3",
        "meta_object_id": "2016-058E",
        "meta_epoch": "2025-12-27T02:15:23.553504",
        "meta_mean_motion": 15.4491929,
        "meta_eccentricity": 0.00021259,
        "meta_inclination": 96.9283,
        "meta_ra_of_asc_node": 34.1738,
        "meta_arg_of_pericenter": 105.0525,
        "meta_mean_anomaly": 255.0961,
        "meta_ephemeris_type": 0,
        "meta_classification_type": "U",
        "meta_norad_cat_id": 41774,
        "meta_element_set_no": 999,
        "meta_rev_at_epoch": 51947,
        "meta_bstar": 0.00045270234,
        "meta_mean_motion_dot": 0.00021233,
        "meta_mean_motion_ddot": 0,
        "tle_line1": "1 41774U 16058E   25361.09402261  .00021233  00000+0  45270-3 0  9995",
        "tle_line2": "2 41774  96.9283  34.1738 0002125 105.0525 255.0961 15.44919290519474"
      },
      "geometry": {
        "type": "Point",
        "coordinates": [
          42.87048313174488,
          -49.79801853410626
        ]
      }
    },
    {
      "type": "Feature",
      "properties": {
        "norad_id": 41785,
        "name": "ALSAT 1B",
        "group": "resource",
        "lat": -82.09147106546799,
        "lon": 112.83282156653189,
        "alt_km": 668.4765502545297,
        "timestamp": "2025-12-27T12:55:14.144416+00:00",
        "meta_object_name": "ALSAT 1B",
        "meta_object_id": "2016-059C",
        "meta_epoch": "2025-12-27T06:48:36.846720",
        "meta_mean_motion": 14.72091932,
        "meta_eccentricity": 0.00106975,
        "meta_inclination": 97.7813,
        "meta_ra_of_asc_node": 12.4454,
        "meta_arg_of_pericenter": 62.7115,
        "meta_mean_anomaly": 297.5181,
        "meta_ephemeris_type": 0,
        "meta_classification_type": "U",
        "meta_norad_cat_id": 41785,
        "meta_element_set_no": 999,
        "meta_rev_at_epoch": 49528,
        "meta_bstar": 0.00015075908,
        "meta_mean_motion_dot": 9.02e-06,
        "meta_mean_motion_ddot": 0,
        "tle_line1": "1 41785U 16059C   25361.28375980  .00000902  00000+0  15076-3 0  9997",
        "tle_line2": "2 41785  97.7813  12.4454 0010697  62.7115 297.5181 14.72091932495286"
      },
      "geometry": {
        "type": "Point",
        "coordinates": [
          112.83282156653189,
          -82.09147106546799
        ]
      }
    },
    {
      "type": "Feature",
      "properties": {
        "norad_id": 41787,
        "name": "PATHFINDER 1",
        "group": "resource",
        "lat": 80.76280401646466,
        "lon": -118.7685528165517,
        "alt_km": 651.3878986648842,
        "timestamp": "2025-12-27T12:55:14.144427+00:00",
        "meta_object_name": "PATHFINDER 1",
        "meta_object_id": "2016-059E",
        "meta_epoch": "2025-12-27T05:56:43.715616",
        "meta_mean_motion": 14.67347486,
        "meta_eccentricity": 0.00294814,
        "meta_inclination": 97.814,
        "meta_ra_of_asc_node": 3.3481,
        "meta_arg_of_pericenter": 36.8288,
        "meta_mean_anomaly": 323.4935,
        "meta_ephemeris_type": 0,
        "meta_classification_type": "U",
        "meta_norad_cat_id": 41787,
        "meta_element_set_no": 999,
        "meta_rev_at_epoch": 49449,
        "meta_bstar": 0.00018977005,
        "meta_mean_motion_dot": 1.032e-05,
        "meta_mean_motion_ddot": 0,
        "tle_line1": "1 41787U 16059E   25361.24772819  .00001032  00000+0  18977-3 0  9995",
        "tle_line2": "2 41787  97.8140   3.3481 0029481  36.8288 323.4935 14.67347486494495"
      },
      "geometry": {
        "type": "Point",
        "coordinates": [
          -118.7685528165517,
          80.76280401646466
        ]
      }
    },
    {
      "type": "Feature",
      "properties": {
        "norad_id": 41790,
        "name": "SCATSAT 1",
        "group": "resource",
        "lat": -14.4430226803887,
        "lon": 60.505960390132465,
        "alt_km": 641.0196296272225,
        "timestamp": "2025-12-27T12:55:14.144437+00:00",
        "meta_object_name": "SCATSAT 1",
        "meta_object_id": "2016-059H",
        "meta_epoch": "2025-12-27T03:14:38.784768",
        "meta_mean_motion": 14.78983356,
        "meta_eccentricity": 0.00564381,
        "meta_inclination": 98.1445,
        "meta_ra_of_asc_node": 57.984,
        "meta_arg_of_pericenter": 82.6627,
        "meta_mean_anomaly": 278.0993,
        "meta_ephemeris_type": 0,
        "meta_classification_type": "U",
        "meta_norad_cat_id": 41790,
        "meta_element_set_no": 999,
        "meta_rev_at_epoch": 7615,
        "meta_bstar": 0.00023346055,
        "meta_mean_motion_dot": 1.714e-05,
        "meta_mean_motion_ddot": 0,
        "tle_line1": "1 41790U 16059H   25361.13517112  .00001714  00000+0  23346-3 0  9993",
        "tle_line2": "2 41790  98.1445  57.9840 0056438  82.6627 278.0993 14.78983356 76155"
      },
      "geometry": {
        "type": "Point",
        "coordinates": [
          60.505960390132465,
          -14.4430226803887
        ]
      }
    },
    {
      "type": "Feature",
      "properties": {
        "norad_id": 41875,
        "name": "GOKTURK 1A",
        "group": "resource",
        "lat": -68.16734440792314,
        "lon": -85.35586381401241,
        "alt_km": 692.1974659586131,
        "timestamp": "2025-12-27T12:55:14.144461+00:00",
        "meta_object_name": "GOKTURK 1A",
        "meta_object_id": "2016-073A",
        "meta_epoch": "2025-12-27T06:40:19.262208",
        "meta_mean_motion": 14.62796521,
        "meta_eccentricity": 0.00012793,
        "meta_inclination": 98.1422,
        "meta_ra_of_asc_node": 253.4496,
        "meta_arg_of_pericenter": 81.3648,
        "meta_mean_anomaly": 278.7698,
        "meta_ephemeris_type": 0,
        "meta_classification_type": "U",
        "meta_norad_cat_id": 41875,
        "meta_element_set_no": 999,
        "meta_rev_at_epoch": 48369,
        "meta_bstar": 0.00012269362,
        "meta_mean_motion_dot": 5.79e-06,
        "meta_mean_motion_ddot": 0,
        "tle_line1": "1 41875U 16073A   25361.27800072  .00000579  00000+0  12269-3 0  9998",
        "tle_line2": "2 41875  98.1422 253.4496 0001279  81.3648 278.7698 14.62796521483695"
      },
      "geometry": {
        "type": "Point",
        "coordinates": [
          -85.35586381401241,
          -68.16734440792314
        ]
      }
    },
    {
      "type": "Feature",
      "properties": {
        "norad_id": 41877,
        "name": "RESOURCESAT-2A",
        "group": "resource",
        "lat": -50.3539223743791,
        "lon": 82.04754260409422,
        "alt_km": 827.3383206279086,
        "timestamp": "2025-12-27T12:55:14.144475+00:00",
        "meta_object_name": "RESOURCESAT-2A",
        "meta_object_id": "2016-074A",
        "meta_epoch": "2025-12-27T08:05:36.375648",
        "meta_mean_motion": 14.21606234,
        "meta_eccentricity": 0.00017311,
        "meta_inclination": 98.7732,
        "meta_ra_of_asc_node": 71.1069,
        "meta_arg_of_pericenter": 193.4557,
        "meta_mean_anomaly": 166.6574,
        "meta_ephemeris_type": 0,
        "meta_classification_type": "U",
        "meta_norad_cat_id": 41877,
        "meta_element_set_no": 999,
        "meta_rev_at_epoch": 46988,
        "meta_bstar": 0.0001484656,
        "meta_mean_motion_dot": 2.81e-06,
        "meta_mean_motion_ddot": 0,
        "tle_line1": "1 41877U 16074A   25361.33722657  .00000281  00000+0  14847-3 0  9994",
        "tle_line2": "2 41877  98.7732  71.1069 0001731 193.4557 166.6574 14.21606234469884"
      },
      "geometry": {
        "type": "Point",
        "coordinates": [
          82.04754260409422,
          -50.3539223743791
        ]
      }
    }
  ]
}